[{"OBJECT_NAME":"STARLINK-5320","OBJECT_ID":"2023-010W","EPOCH":"2026-03-09T22:25:03.019872","MEAN_MOTION":14.98339076,"ECCENTRICITY":0.00029837,"INCLINATION":70.0011,"RA_OF_ASC_NODE":23.927,"ARG_OF_PERICENTER":267.5358,"MEAN_ANOMALY":92.5459,"EPHEMERIS_TYPE":0,"CLASSIFICATION_TYPE":"U","NORAD_CAT_ID":55289,"ELEMENT_SET_NO":999,"REV_AT_EPOCH":17330,"BSTAR":-0.00034866534,"MEAN_MOTION_DOT":-4.252e-5,"MEAN_MOTION_DDOT":0},{"OBJECT_NAME":"LEMUR-2-KARENDARRELL","OBJECT_ID":"2025-135BU","EPOCH":"2026-03-09T21:08:31.963200","MEAN_MOTION":14.98475386,"ECCENTRICITY":0.00078103,"INCLINATION":97.7605,"RA_OF_ASC_NODE":185.4061,"ARG_OF_PERICENTER":183.1489,"MEAN_ANOMALY":176.9686,"EPHEMERIS_TYPE":0,"CLASSIFICATION_TYPE":"U","NORAD_CAT_ID":64841,"ELEMENT_SET_NO":999,"REV_AT_EPOCH":3913,"BSTAR":0.00091115502,"MEAN_MOTION_DOT":0.00010849,"MEAN_MOTION_DDOT":0}]
